UTMN-2 (RS27S)
1 57203U 23091AP  25100.18263549  .00020017  00000-0  92384-3 0  9997
2 57203  97.5667 158.8169 0011611 156.2072 203.9702 15.20200199 98515
SITRO-AIS-12 (FARTUSHNY)
1 57204U 23091AQ  25100.20805985  .00022660  00000-0  97558-3 0  9991
2 57204  97.5664 159.7059 0010875 152.9774 207.2031 15.22562599 98579
ARCCUBE-1 (RS25S)
1 57205U 23091AR  25100.19116424  .00067420  00000-0  17359-2 0  9996
2 57205  97.5546 163.6732 0008198 154.2420 205.9235 15.38953051 98866
AHMAT-1 (RS41S)
1 57206U 23091AS  25100.17487282  .00035157  00000-0  12826-2 0  9994
2 57206  97.5623 161.1419 0009577 156.5751 203.5926 15.28023764 98681
SITRO-AIS-11 (SMIRENNY)
1 57208U 23091AU  25100.16837900  .00024058  00000-0  10302-2 0  9996
2 57208  97.5664 159.7393 0010700 153.3206 206.8583 15.22735015 98578
KUZGTU-1 (RS47S)
1 57217U 23091AV  25100.16117452  .00019234  00000-0  92771-3 0  9990
2 57217  97.5658 157.3632 0014909 169.5619 190.5928 15.18642700 98422
STRATOSAT-TK1-A (RS45S)
1 57322U 23091AW  25100.00087777  .00136216  00000-0  23562-2 0  9997
2 57322  97.5567 164.9294 0008890 165.7367 194.4136 15.50416410 96791
STRATOSAT-TK1-E (RS52SE)
1 57323U 23091AX  25100.22874019  .00042592  00000-0  14721-2 0  9995
2 57323  97.5629 160.6945 0012330 164.5358 195.6261 15.29720372 96533
STRATOSAT-TK1-B (RS52SB)
1 57324U 23091AY  25100.23154429  .00132413  00000-0  23120-2 0  9998
2 57324  97.5572 165.1004 0008869 164.9917 195.1599 15.50164317 96820
STRATOSAT-TK1-D (RS52SD)
1 57326U 23091BA  25100.17453548  .00041860  00000-0  14757-2 0  9998
2 57326  97.5622 160.4297 0012424 165.2847 194.8757 15.29077615 96358
STRATOSAT-TK1-V (RS52SV)
1 57327U 23091BB  25100.20364708  .00137739  00000-0  23832-2 0  9997
2 57327  97.5575 165.1651 0008915 165.3776 194.7734 15.50402833 96660
VERONIKA
1 58261U 23174F   25100.20372714  .00125793  00000-0  18282-2 0  9993
2 58261  97.4178 183.4524 0007396 247.7530 112.2940 15.55318726 79255
ENSO
1 58470U 23185J   25100.17821717  .00071021  00000-0  13183-2 0  9994
2 58470  97.3786 173.6591 0006500 286.5040  73.5496 15.48674189 75665
HAYASAT-1
1 58471U 23185K   25099.98824539  .00631046  00000-0  22846-2 0  9991
2 58471  97.3638 178.0786 0008678 253.3424 106.6894 15.87045495 75949
METEOR M2-4
1 59051U 24039A   25100.21756070  .00000128  00000-0  77101-4 0  9995
2 59051  98.6437  61.4958 0006921 353.4750   6.6337 14.22355830 57715
SITRO-AIS-29
1 59052U 24039B   25099.78472252  .00395129  00000-0  19719-2 0  9999
2 59052  97.4120  73.6239 0009157 159.8807 200.2823 15.80771109 62392
SITRO-AIS-30
1 59053U 24039C   25100.15684477  .00277855  00000-0  16160-2 0  9990
2 59053  97.4123  73.7193 0008776 163.1230 197.0329 15.77665402 62422
SITRO-AIS-31
1 59054U 24039D   25099.67765816  .00352263  00000-0  18663-2 0  9999
2 59054  97.4134  73.4671 0008626 164.0924 196.0616 15.79564753 62389
SITRO-AIS-33
1 59055U 24039E   25099.89445357  .00353793  00000-0  18266-2 0  9997
2 59055  97.4111  73.7861 0008855 159.8294 200.3325 15.80130787 62413
SITRO-AIS-35
1 59056U 24039F   25099.93518138  .00353801  00000-0  17695-2 0  9996
2 59056  97.4124  73.8934 0008550 159.8568 200.3039 15.80833876 62428
SITRO-AIS-32
1 59057U 24039G   25099.71531924  .00312032  00000-0  17594-2 0  9990
2 59057  97.4134  73.4315 0008583 162.4404 197.7161 15.78276791 62377
SITRO-AIS-34
1 59058U 24039H   25099.89655517  .00350092  00000-0  18052-2 0  9993
2 59058  97.4114  73.7897 0008879 159.0744 201.0889 15.80167973 62416
SITRO-AIS-36
1 59059U 24039J   25099.69288043  .00316860  00000-0  17179-2 0  9992
2 59059  97.4116  73.5829 0008397 159.0254 201.1359 15.79144756 62384
SITRO-AIS-49
1 59060U 24039K   25099.94543493  .00301545  00000-0  17154-2 0  9992
2 59060  97.4122  73.7175 0008679 161.0546 199.1045 15.78103694 62416
SITRO-AIS-50
1 59062U 24039M   25099.94135029  .00399101  00000-0  17811-2 0  9991
2 59062  97.4098  74.1641 0009158 157.8911 202.2754 15.83186522 62448
SITRO-AIS-51
1 59061U 24039L   25099.90304490  .00393557  00000-0  18121-2 0  9990
2 59061  97.4097  74.0608 0009214 157.4466 202.7210 15.82527414 62431
SITRO-AIS-52
1 59063U 24039N   25100.10267467  .00394677  00000-0  17207-2 0  9997
2 59063  97.4122  74.4272 0008859 158.6868 201.4772 15.83699883 62470
ZORKIY-2M 2
1 59064U 24039P   25100.16546736  .00058328  00000-0  10135-2 0  9996
2 59064  97.4253  70.6073 0008504 206.4852 153.5966 15.50595178 62237
PARS-1
1 59065U 24039Q   25100.17995505  .00017038  00000-0  50057-3 0  9991
2 59065  97.4341  67.5901 0009950 225.6616 134.3812 15.35146618 61991
SITRO-AIS-25
1 59066U 24039R   25100.17102638  .00008109  00000-0  69190-3 0  9996
2 59066  95.3774 298.9303 0158490  37.5107 323.7049 14.88533669 60206
SITRO-AIS-26
1 59067U 24039S   25100.19095440  .00007446  00000-0  63781-3 0  9994
2 59067  95.3774 298.9123 0158671  37.5911 323.6277 14.88386790 60204
SITRO-AIS-27
1 59068U 24039T   25100.19898201  .00007595  00000-0  64641-3 0  9992
2 59068  95.3774 299.0209 0157900  37.0097 324.1894 14.88703700 60212
SITRO-AIS-28
1 59071U 24039U   25100.18770265  .00007337  00000-0  62405-3 0  9994
2 59071  95.3777 299.0360 0157794  36.9920 324.2059 14.88744567 60211
SONATE-2
1 59112U 24043Q   25099.85459628  .00031039  00000-0  96664-3 0  9993
2 59112  97.5037 229.9542 0010555 331.6822  28.3845 15.33168377 61028
HORS-1
1 57188U 23091Y   25100.08452337  .00014801  00000-0  73526-3 0  9994
2 57188  97.5664 157.6339 0011961 160.0325 200.1379 15.17707200 98433
HORS-2
1 57196U 23091AG  25100.02285441  .00017886  00000-0  83134-3 0  9999
2 57196  97.5677 158.5944 0011573 159.3635 200.8069 15.19980711 98482
ZORKIY-2M 6
1 59774U 24092B   25100.14209615  .00018569  00000-0  89911-3 0  9995
2 59774  97.6054 217.2021 0010447 249.8094 110.2016 15.18568018 49605
ZORKIY-2M 4
1 59775U 24092C   25100.21264670  .00018452  00000-0  88254-3 0  9996
2 59775  97.6184 217.9719 0010459 253.0681 106.9406 15.18996414 49636
SITRO-AIS-53
1 59776U 24092D   25100.05473403  .00025079  00000-0  11475-2 0  9998
2 59776  97.6140 217.5165 0010128 226.8996 133.1392 15.20465672 49603
SITRO-AIS-54
1 59777U 24092E   25100.05241360  .00024803  00000-0  11359-2 0  9999
2 59777  97.6135 217.5146 0010370 227.4979 132.5380 15.20434193 49608
SITRO-AIS-56
1 59778U 24092F   25100.03003421  .00024150  00000-0  10980-2 0  9996
2 59778  97.6130 217.5264 0010608 228.5825 131.4499 15.20688410 49603
RASSVET 1-4
1 59779U 24092G   25100.21003198  .00000596  00000-0  24026-3 0  9993
2 59779  98.6275 215.8223 0012941  47.8752 312.3529 14.31568956 46945
RASSVET 1-5
1 59780U 24092H   25100.20947391  .00000584  00000-0  23583-3 0  9990
2 59780  98.6274 215.8198 0013175  48.4144 311.8166 14.31568141 46946
RASSVET 1-6
1 59781U 24092J   25100.20845460  .00000587  00000-0  23690-3 0  9997
2 59781  98.6274 215.8219 0012941  48.0901 312.1383 14.31569019 46948
SITRO-AIS-55
1 59809U 24092K   25099.87519925  .00025598  00000-0  11750-2 0  9994
2 59809  97.6126 217.2663 0010678 228.5437 131.4882 15.20345769 49073
MESAT-1
1 60209U 24125G   25100.07656657  .00030140  00000-0  92601-3 0  9990
2 60209  97.2881 312.4484 0019429 358.5983   1.5202 15.33471190 42679
ISTSAT-1
1 60238U 24128D   25100.03511233  .00012838  00000-0  91210-3 0  9990
2 60238  61.9902 288.9289 0045324  44.6135 315.8590 15.04202341 41148
IONOSFERA-M 01
1 61735U 24199A   25100.18231180  .00000168  00000-0  95073-4 0  9992
2 61735  98.7786 331.4673 0000863  23.0989 337.0227 14.22653968 66130
IONOSFERA-M 02
1 61736U 24199B   25100.14689064  .00000176  00000-0  98674-4 0  9996
2 61736  98.7784 331.3480 0001788 106.3674 253.7701 14.22654546 69257
SITRO-AIS-16
1 61737U 24199C   25100.21520107  .00006348  00000-0  59281-3 0  9994
2 61737  97.3672 321.4326 0008724  88.7999 271.4222 14.94460334 67081
SITRO-AIS-15
1 61738U 24199D   25100.20839210  .00006004  00000-0  56039-3 0  9999
2 61738  97.3672 321.4414 0008358  88.9945 271.2234 14.94504564 67081
SITRO-AIS-21
1 61739U 24199E   25100.16951124  .00006097  00000-0  59163-3 0  9997
2 61739  97.3678 321.0475 0015022  80.6699 279.6219 14.92895061 67091
SITRO-AIS-22
1 61740U 24199F   25100.16659048  .00006410  00000-0  62089-3 0  9999
2 61740  97.3681 321.0564 0015125  81.7643 278.5292 14.92951376 67249
SITRO-AIS-24
1 61741U 24199G   25100.16667980  .00005992  00000-0  58154-3 0  9996
2 61741  97.3682 321.0584 0015071  83.0712 277.2222 14.92895341 67210
SITRO-AIS-23
1 61742U 24199H   25100.16195707  .00006554  00000-0  63417-3 0  9993
2 61742  97.3679 321.0627 0014940  82.7520 277.5398 14.92983896 67098
SITRO-AIS-13
1 61743U 24199J   25100.06048042  .00005623  00000-0  52277-3 0  9990
2 61743  97.3674 321.3333 0008109  89.6813 270.5337 14.94683039 67221
CSTP-2.11
1 61744U 24199K   25100.14102086  .00025443  00000-0  83993-3 0  9990
2 61744  97.3669 329.2946 0013731  45.0195 315.2156 15.31300153 67703
POLYTECH UNIVERSE-5 (RS70S)
1 61745U 24199L   25100.22268495  .00030254  00000-0  96403-3 0  9993
2 61745  97.3645 329.4312 0011656  53.1338 307.0970 15.32427978 70860
COLIBRI-S (RS67S)
1 61746U 24199M   25100.17690001  .00023396  00000-0  78860-3 0  9996
2 61746  97.3671 329.2425 0013837  45.7371 314.5003 15.30642823 70844
POLYTECH UNIVERSE-4 (RS71S)
1 61747U 24199N   25100.06017226  .00020767  00000-0  70955-3 0  9993
2 61747  97.3670 329.0922 0013846  44.3145 315.9202 15.30226703 70827
SITRO-AIS-44
1 61748U 24199P   25100.05942735  .00033325  00000-0  10399-2 0  9994
2 61748  97.3640 329.3410 0011333  53.2563 306.9718 15.33080104 70842
VIZARD-ION (RS68S)
1 61749U 24199Q   25100.18164914  .00027838  00000-0  90477-3 0  9992
2 61749  97.3671 329.3915 0013281  43.8248 316.4045 15.31790436 70850
MTUSI-1
1 61750U 24199R   25100.17833940  .00030291  00000-0  99728-3 0  9990
2 61750  97.3646 329.1887 0013837  54.9474 305.3063 15.31349773 70841
